[
    {
        "Altitude(m)": 570986.9795610626,
        "Argument of Periapsis(deg)": 0.033114955553567506,
        "Eccentricity": 0.0,
        "Inclination(deg)": 53.0,
        "Latitude(deg)": -50.94392483562469,
        "Longitude(deg)": -86.5256867199268,
        "Mean Anomaly(deg)": -104.087435662112,
        "RAAN(deg)": 129.9507168426401,
        "Satellite Name": "Starlink Shell 1 584",
        "Satellite Number": 584,
        "Semi-Major Axis(m)": 6931778.249405717,
        "Time(s)": 950
    },
    {
        "Altitude(m)": 571060.7642506676,
        "Argument of Periapsis(deg)": 0.03346353403307874,
        "Eccentricity": 0.0,
        "Inclination(deg)": 53.0,
        "Latitude(deg)": -51.13146296462578,
        "Longitude(deg)": -85.62173107423787,
        "Mean Anomaly(deg)": -103.46060445855535,
        "RAAN(deg)": 129.9501980725626,
        "Satellite Name": "Starlink Shell 1 584",
        "Satellite Number": 584,
        "Semi-Major Axis(m)": 6931778.249405717,
        "Time(s)": 960
    },
    {
        "Altitude(m)": 571131.3808745592,
        "Argument of Periapsis(deg)": 0.03381211251258998,
        "Eccentricity": 0.0,
        "Inclination(deg)": 53.0,
        "Latitude(deg)": -51.31129635674239,
        "Longitude(deg)": -84.7102603722021,
        "Mean Anomaly(deg)": -102.83377325499863,
        "RAAN(deg)": 129.94967930248515,
        "Satellite Name": "Starlink Shell 1 584",
        "Satellite Number": 584,
        "Semi-Major Axis(m)": 6931778.249405717,
        "Time(s)": 970
    },
    {
        "Altitude(m)": 571198.8012915609,
        "Argument of Periapsis(deg)": 0.034160690992101214,
        "Eccentricity": 0.0,
        "Inclination(deg)": 53.0,
        "Latitude(deg)": -51.483315999705646,
        "Longitude(deg)": -83.79148900624456,
        "Mean Anomaly(deg)": -102.20694205144194,
        "RAAN(deg)": 129.94916053240766,
        "Satellite Name": "Starlink Shell 1 584",
        "Satellite Number": 584,
        "Semi-Major Axis(m)": 6931778.249405717,
        "Time(s)": 980
    },
    {
        "Altitude(m)": 571262.9986267516,
        "Argument of Periapsis(deg)": 0.034509269471612446,
        "Eccentricity": 0.0,
        "Inclination(deg)": 53.0,
        "Latitude(deg)": -51.64741572136926,
        "Longitude(deg)": -82.86564706703084,
        "Mean Anomaly(deg)": -101.58011084788524,
        "RAAN(deg)": 129.94864176233023,
        "Satellite Name": "Starlink Shell 1 584",
        "Satellite Number": 584,
        "Semi-Major Axis(m)": 6931778.249405717,
        "Time(s)": 990
    }
]